NORAD_CAT_ID,OBJECT_NAME,OBJECT_TYPE,EPOCH,MEAN_MOTION,ECCENTRICITY,INCLINATION,RA_OF_ASC_NODE,ARG_OF_PERICENTER,MEAN_ANOMALY,BSTAR,MEAN_MOTION_DOT,MEAN_MOTION_DDOT,TLE_LINE0,TLE_LINE1,TLE_LINE2,SEMIMAJOR_AXIS,PERIOD,APOGEE,PERIGEE,DECAYED
52296.0,STARLINK-3766,PAYLOAD,2023-01-09 21:43:56,15.08859231,0.0002,53.2132,243.1611,46.3246,313.7912,0.00045657,6.989e-05,0.0,0 STARLINK-3766,1 52296U 22041AM  23009.90551335  .00006989  00000-0  45657-3 0  9990,2 52296  53.2132 243.1611 0002000  46.3246 313.7912 15.08859231 40177,6917.821999999999,95.436,541.07,538.303,0.0
52296.0,STARLINK-3766,PAYLOAD,2023-01-10 08:51:38,15.08854529,0.000174,53.2127,241.0797,39.4688,320.643,0.00026743,3.972e-05,0.0,0 STARLINK-3766,1 52296U 22041AM  23010.36919060  .00003972  00000-0  26743-3 0  9999,2 52296  53.2127 241.0797 0001740  39.4688 320.6430 15.08854529 41466,6917.835999999998,95.437,540.905,538.497,0.0
52296.0,STARLINK-3766,PAYLOAD,2023-01-11 00:45:29,15.08843821,0.0001986,53.2114,238.1053,54.6043,305.5134,7.786699999999999e-05,9.51e-06,0.0,0 STARLINK-3766,1 52296U 22041AM  23011.03159272  .00000951  00000-0  77867-4 0  9993,2 52296  53.2114 238.1053 0001986  54.6043 305.5134 15.08843821 41567,6917.8690000000015,95.437,541.1080000000002,538.36,0.0
52296.0,STARLINK-3766,PAYLOAD,2023-01-11 21:25:29,15.08853076,0.0001946,53.2138,234.2403,43.7221,316.3925,0.00021413,3.123e-05,0.0,0 STARLINK-3766,1 52296U 22041AM  23011.89270589  .00003123  00000-0  21413-3 0  9991,2 52296  53.2138 234.2403 0001946  43.7221 316.3925 15.08853076 40472,6917.84,95.437,541.052,538.359,0.0
52296.0,STARLINK-3766,PAYLOAD,2023-01-12 00:36:16,15.08852149,0.0001976,53.2134,233.6458,46.5386,313.577,0.00019891,2.88e-05,0.0,0 STARLINK-3766,1 52296U 22041AM  23012.02518552  .00002880  00000-0  19891-3 0  9998,2 52296  53.2134 233.6458 0001976  46.5386 313.5770 15.08852149 41712,6917.843000000002,95.437,541.075,538.341,0.0
52296.0,STARLINK-3766,PAYLOAD,2023-01-12 21:16:17,15.08833563,0.0002593,53.2141,229.7779,63.4604,296.6654,-7.6273e-05,-1.502e-05,0.0,0 STARLINK-3766,1 52296U 22041AM  23012.88631797 -.00001502  00000-0 -76273-4 0  9999,2 52296  53.2141 229.7779 0002593  63.4604 296.6654 15.08833563 41844,6917.9,95.438,541.559,537.971,0.0
52296.0,STARLINK-3766,PAYLOAD,2023-01-13 14:45:32,15.08845358,0.0001895,53.2141,226.5078,54.4466,305.6703,-0.00018901,-3.296e-05,0.0,0 STARLINK-3766,1 52296U 22041AM  23013.61495681 -.00003296  00000-0 -18901-3 0  9996,2 52296  53.2141 226.5078 0001895  54.4466 305.6703 15.08845358 40739,6917.8640000000005,95.437,541.04,538.418,0.0
52296.0,STARLINK-3766,PAYLOAD,2023-01-13 21:07:05,15.08844734,0.0001819,53.2141,225.3182,50.9221,309.1933,0.00026458,3.926e-05,0.0,0 STARLINK-3766,1 52296U 22041AM  23013.87991987  .00003926  00000-0  26458-3 0  9998,2 52296  53.2141 225.3182 0001819  50.9221 309.1933 15.08844734 40773,6917.866,95.437,540.989,538.4730000000001,0.0
52296.0,STARLINK-3766,PAYLOAD,2023-01-14 00:17:51,15.08845296,0.0001892,53.2141,224.7235,52.6351,307.4813,0.00050009,7.681e-05,0.0,0 STARLINK-3766,1 52296U 22041AM  23014.01240168  .00007681  00000-0  50009-3 0  9994,2 52296  53.2141 224.7235 0001892  52.6351 307.4813 15.08845296 42010,6917.8640000000005,95.437,541.038,538.42,0.0
52296.0,STARLINK-3766,PAYLOAD,2023-01-14 14:36:20,15.08836005,0.0001831,53.2139,222.0471,53.0847,307.0313,8.1228e-05,1.005e-05,0.0,0 STARLINK-3766,1 52296U 22041AM  23014.60856494  .00001005  00000-0  81228-4 0  9996,2 52296  53.2139 222.0471 0001831  53.0847 307.0313 15.08836005 42107,6917.893,95.438,541.024,538.491,0.0
52296.0,STARLINK-3766,PAYLOAD,2023-01-15 12:51:44,15.08837905,0.0001754999999999,53.2138,217.8839,56.3078,303.8081,8.5223e-05,1.068e-05,0.0,0 STARLINK-3766,1 52296U 22041AM  23015.53592619  .00001068  00000-0  85223-4 0  9993,2 52296  53.2138 217.8839 0001755  56.3078 303.8081 15.08837905 41029,6917.887,95.438,540.966,538.538,0.0
52296.0,STARLINK-3766,PAYLOAD,2023-01-15 19:13:16,15.08841785,0.0001631,53.2139,216.6946,56.4998,303.6149,0.00019433,2.806e-05,0.0,0 STARLINK-3766,1 52296U 22041AM  23015.80088538  .00002806  00000-0  19433-3 0  9993,2 52296  53.2139 216.6946 0001631  56.4998 303.6149 15.08841785 42284,6917.875,95.437,540.868,538.612,0.0
52296.0,STARLINK-3766,PAYLOAD,2023-01-15 20:48:39,15.08844912,0.0001626999999999,53.2138,216.3971,56.9847,303.1301,0.00041008,6.245e-05,0.0,0 STARLINK-3766,1 52296U 22041AM  23015.86712557  .00006245  00000-0  41008-3 0  9998,2 52296  53.2138 216.3971 0001627  56.9847 303.1301 15.08844912 41077,6917.865,95.437,540.856,538.605,0.0
52296.0,STARLINK-3766,PAYLOAD,2023-01-16 12:42:31,15.08841248,0.0001774999999999,53.2142,213.4236,62.6231,297.4942,0.00021584,3.149e-05,0.0,0 STARLINK-3766,1 52296U 22041AM  23016.52952746  .00003149  00000-0  21584-3 0  9995,2 52296  53.2142 213.4236 0001775  62.6231 297.4942 15.08841248 41175,6917.877,95.437,540.969,538.514,0.0
52296.0,STARLINK-3766,PAYLOAD,2023-01-16 19:04:03,15.08840048,0.000168,53.2138,212.2341,60.3405,299.7754,0.0001514,2.122e-05,0.0,0 STARLINK-3766,1 52296U 22041AM  23016.79448753  .00002122  00000-0  15140-3 0  9993,2 52296  53.2138 212.2341 0001680  60.3405 299.7754 15.08840048 42430,6917.88,95.438,540.9069999999999,538.5830000000001,0.0
52296.0,STARLINK-3766,PAYLOAD,2023-01-17 12:33:18,15.088416699999998,0.0001733999999999,53.2139,208.9628,61.1589,298.9577,0.00016852,2.395e-05,0.0,0 STARLINK-3766,1 52296U 22041AM  23017.52312799  .00002395  00000-0  16852-3 0  9998,2 52296  53.2139 208.9628 0001734  61.1589 298.9577 15.08841670 41326,6917.875,95.437,540.94,538.5409999999999,0.0
52296.0,STARLINK-3766,PAYLOAD,2023-01-17 18:54:50,15.08843031,0.0001749,53.2139,207.7733,61.2819,298.8349,0.00017476,2.495e-05,0.0,0 STARLINK-3766,1 52296U 22041AM  23017.78808750  .00002495  00000-0  17476-3 0  9997,2 52296  53.2139 207.7733 0001749  61.2819 298.8349 15.08843031 41366,6917.871,95.437,540.946,538.526,0.0
52296.0,STARLINK-3766,PAYLOAD,2023-01-17 22:05:37,15.08841334,0.0001738,53.2143,207.1784,61.9441,298.1727,9.912e-05,1.29e-05,0.0,0 STARLINK-3766,1 52296U 22041AM  23017.92056843  .00001290  00000-0  99120-4 0  9990,2 52296  53.2143 207.1784 0001738  61.9441 298.1727 15.08841334 42602,6917.876,95.437,540.944,538.539,0.0
52296.0,STARLINK-3766,PAYLOAD,2023-01-18 12:24:05,15.08839756,0.000175,53.2149,204.5023,63.4114,296.7057,8.4211e-05,1.052e-05,0.0,0 STARLINK-3766,1 52296U 22041AM  23018.51672948  .00001052  00000-0  84211-4 0  9997,2 52296  53.2149 204.5023 0001750  63.4114 296.7057 15.08839756 41472,6917.880999999999,95.438,540.957,538.536,0.0
52296.0,STARLINK-3766,PAYLOAD,2023-01-18 18:45:37,15.08845342,0.0001695,53.2151,203.3124,64.9207,295.1961,0.0001249,1.701e-05,0.0,0 STARLINK-3766,1 52296U 22041AM  23018.78168417  .00001701  00000-0  12490-3 0  9997,2 52296  53.2151 203.3124 0001695  64.9207 295.1961 15.08845342 41511,6917.8640000000005,95.437,540.9019999999999,538.556,0.0
52296.0,STARLINK-3766,PAYLOAD,2023-01-19 12:14:52,15.08836789,0.0001635,53.2153,200.041,68.1359,291.9806,3.2408e-05,2.28e-06,0.0,0 STARLINK-3766,1 52296U 22041AM  23019.51033154  .00000228  00000-0  32408-4 0  9993,2 52296  53.2153 200.0410 0001635  68.1359 291.9806 15.08836789 42847,6917.89,95.438,540.886,538.624,0.0
52296.0,STARLINK-3766,PAYLOAD,2023-01-19 18:36:24,15.08840865,0.0001616,53.2154,198.8513,69.4639,290.6526,5.7499e-05,6.27e-06,0.0,0 STARLINK-3766,1 52296U 22041AM  23019.77528797  .00000627  00000-0  57499-4 0  9993,2 52296  53.2154 198.8513 0001616  69.4639 290.6526 15.08840865 41664,6917.878000000001,95.437,540.861,538.625,0.0
52296.0,STARLINK-3766,PAYLOAD,2023-01-20 18:27:11,15.08844435,0.0001595999999999,53.2156,194.3912,69.2041,290.9122,0.00010137,1.326e-05,0.0,0 STARLINK-3766,1 52296U 22041AM  23020.76888467  .00001326  00000-0  10137-3 0  9991,2 52296  53.2156 194.3912 0001596  69.2041 290.9122 15.08844435 43037,6917.866999999999,95.437,540.836,538.628,0.0
52296.0,STARLINK-3766,PAYLOAD,2023-01-21 10:21:03,15.08835072,0.0001619,53.2157,191.4176,71.074,289.0427,7.7877e-05,9.51e-06,0.0,0 STARLINK-3766,1 52296U 22041AM  23021.43129165  .00000951  00000-0  77877-4 0  9997,2 52296  53.2157 191.4176 0001619  71.0740 289.0427 15.08835072 43136,6917.895,95.438,540.88,538.64,0.0
52296.0,STARLINK-3766,PAYLOAD,2023-01-22 11:47:13,15.08839468,0.0001516,53.2155,186.6599,74.7142,285.4017,-3.4602e-05,-8.39e-06,0.0,0 STARLINK-3766,1 52296U 22041AM  23022.49113356 -.00000839  00000-0 -34602-4 0  9995,2 52296  53.2155 186.6599 0001516  74.7142 285.4017 15.08839468 43296,6917.882,95.438,540.7959999999999,538.698,0.0
52296.0,STARLINK-3766,PAYLOAD,2023-01-22 14:58:01,15.08762569,0.0001864,53.2157,186.0658,81.5674,278.5529,0.0010918,0.00017094,0.0,0 STARLINK-3766,1 52296U 22041AM  23022.62362404  .00017094  00000-0  10918-2 0  9991,2 52296  53.2157 186.0658 0001864  81.5674 278.5529 15.08762569 43311,6918.116999999999,95.442,541.2719999999999,538.693,0.0
52296.0,STARLINK-3766,PAYLOAD,2023-01-22 18:08:47,15.08787921,0.0001768,53.2158,185.471,78.8929,281.2262,0.00084836,0.0001322,0.0,0 STARLINK-3766,1 52296U 22041AM  23022.75610193  .00013220  00000-0  84836-3 0  9994,2 52296  53.2158 185.4710 0001768  78.8929 281.2262 15.08787921 43335,6918.04,95.441,541.128,538.681,0.0
52296.0,STARLINK-3766,PAYLOAD,2023-01-23 19:34:56,15.08841042,0.0001411,53.2163,180.7124,74.6446,285.4702,7.4464e-05,8.97e-06,0.0,0 STARLINK-3766,1 52296U 22041AM  23023.81593128  .00000897  00000-0  74464-4 0  9993,2 52296  53.2163 180.7124 0001411  74.6446 285.4702 15.08841042 43498,6917.877,95.437,540.7180000000001,538.766,0.0
52296.0,STARLINK-3766,PAYLOAD,2023-01-25 03:22:39,15.08843278,0.0001236,53.2158,174.7656,82.6714,277.4419,3.9218e-05,3.36e-06,0.0,0 STARLINK-3766,1 52296U 22041AM  23025.14072955  .00000336  00000-0  39218-4 0  9997,2 52296  53.2158 174.7656 0001236  82.6714 277.4419 15.08843278 43698,6917.87,95.437,540.59,538.88,0.0
